{
    "CCSDS_OMM_VERS": "3.0",
    "COMMENT": "GENERATED VIA SPACE-TRACK.ORG API",
    "CREATION_DATE": "2025-05-22T17:14:14",
    "ORIGINATOR": "18 SPCS",
    "OBJECT_NAME": "COSMOS 2471 (GLONASS)",
    "OBJECT_ID": "2011-009A",
    "CENTER_NAME": "EARTH",
    "REF_FRAME": "TEME",
    "TIME_SYSTEM": "UTC",
    "MEAN_ELEMENT_THEORY": "SGP4",
    "EPOCH": "2025-05-22T10:25:34.315680",
    "MEAN_MOTION": "2.12911324",
    "ECCENTRICITY": "0.00087450",
    "INCLINATION": "65.6263",
    "RA_OF_ASC_NODE": "327.6618",
    "ARG_OF_PERICENTER": "330.5015",
    "MEAN_ANOMALY": "33.2013",
    "EPHEMERIS_TYPE": "0",
    "CLASSIFICATION_TYPE": "U",
    "NORAD_CAT_ID": "37372",
    "ELEMENT_SET_NO": "999",
    "REV_AT_EPOCH": "11076",
    "BSTAR": "0.00000000000000",
    "MEAN_MOTION_DOT": "-0.00000022",
    "MEAN_MOTION_DDOT": "0.0000000000000",
    "SEMIMAJOR_AXIS": "25523.252",
    "PERIOD": "676.338",
    "APOAPSIS": "19167.437",
    "PERIAPSIS": "19122.796",
    "OBJECT_TYPE": "PAYLOAD",
    "RCS_SIZE": "LARGE",
    "COUNTRY_CODE": "CIS",
    "LAUNCH_DATE": "2011-02-26",
    "SITE": "PKMTR",
    "DECAY_DATE": null,
    "FILE": "4736220",
    "GP_ID": "288141157",
    "TLE_LINE0": "0 COSMOS 2471 (GLONASS)",
    "TLE_LINE1": "1 37372U 11009A   25142.43442495 -.00000022  00000-0  00000-0 0  9997",
    "TLE_LINE2": "2 37372  65.6263 327.6618 0008745 330.5015  33.2013  2.12911324110768"
}